SL-8 R/B                
1 21088U 91006B   26070.74067078  .00000081  00000+0  65719-4 0  9999
2 21088  82.9465 168.5212 0022957  32.7248  77.3402 13.77494568764353
OKEAN-3                 
1 21397U 91039A   26070.80685970  .00004261  00000+0  29930-3 0  9990
2 21397  82.5195 334.7924 0013754 329.9550  30.0886 15.04824060865351
COSMOS 2151             
1 21422U 91042A   26070.81786042  .00001975  00000+0  15595-3 0  9997
2 21422  82.4930  81.6227 0013932  57.3576 302.8990 15.00112448863516
SL-14 R/B               
1 21423U 91042B   26070.85104013  .00000584  00000+0  70855-4 0  9990
2 21423  82.4929 218.1556 0015903 231.0138 128.9660 14.81832048853391
ERS-1                   
1 21574U 91050A   26070.57412924  .00000378  00000+0  13552-3 0  9999
2 21574  98.7880  88.8561 0031724 194.8016 165.2246 14.39451012816004
ARIANE 40 R/B           
1 21610U 91050F   26070.75928948  .00000339  00000+0  11407-3 0  9992
2 21610  98.2007 122.9179 0004262  76.6440 283.5225 14.42895234819298
INTERCOSMOS 25          
1 21819U 91086A   26070.63901133  .00001837  00000+0  35302-3 0  9990
2 21819  82.6045 308.8303 1486942 112.7337 263.7508 12.12005735496928
SL-8 R/B                
1 21876U 92008B   26070.61256517  .00000015  00000+0 -60059-6 0  9993
2 21876  82.9222 266.3475 0035615 128.1325 293.5640 13.75969830709686
SL-8 R/B                
1 21938U 92020B   26070.74008365  .00000070  00000+0  57498-4 0  9997
2 21938  82.9333 152.2393 0027642 292.8296 183.5400 13.75549784701414
USA 81                  
1 21949U 92023A   26070.61482132  .00000186  00000+0  61306-4 0  9997
2 21949  85.0082 130.3307 0002397  76.5141 283.6318 14.32368672 95065
COSMOS 2219             
1 22219U 92076A   26070.85535510  .00000058  00000+0  55014-4 0  9998
2 22219  71.0639  13.5404 0018871 204.0706 155.9536 14.14093176718685
SL-16 R/B               
1 22220U 92076B   26070.75397330 -.00000153  00000+0 -52500-4 0  9990
2 22220  71.0009 184.0257 0010468  92.6138  19.5545 14.16859282722121
COSMOS 2221             
1 22236U 92080A   26070.84432936  .00002210  00000+0  19341-3 0  9993
2 22236  82.5012 277.0167 0014237 179.6150 180.5086 14.96209562781111
SL-16 R/B               
1 22285U 92093B   26070.85960442 -.00000169  00000+0 -62360-4 0  9993
2 22285  71.0242 359.7108 0006384 291.4190  68.6251 14.15447308713463
COSMOS 2228             
1 22286U 92094A   26070.85926176  .00002873  00000+0  24557-3 0  9998
2 22286  82.5159 235.2327 0016707 296.8460  63.1054 14.97202099776385
SL-16 R/B               
1 22566U 93016B   26070.82956287  .00000016  00000+0  32629-4 0  9994
2 22566  71.0077 210.6861 0011948 311.1602  48.8489 14.15309235702470
COSMOS 2242             
1 22626U 93024A   26070.57491427  .00001971  00000+0  17073-3 0  9998
2 22626  82.5156 264.9127 0015086 302.0375  57.9381 14.96557684780674
