[{"OBJECT_NAME":"SL-8 R/B","OBJECT_ID":"1991-006B","EPOCH":"2026-03-11T17:46:33.955392","MEAN_MOTION":13.77494568,"ECCENTRICITY":0.0022957,"INCLINATION":82.9465,"RA_OF_ASC_NODE":168.5212,"ARG_OF_PERICENTER":32.7248,"MEAN_ANOMALY":77.3402,"EPHEMERIS_TYPE":0,"CLASSIFICATION_TYPE":"U","NORAD_CAT_ID":21088,"ELEMENT_SET_NO":999,"REV_AT_EPOCH":76435,"BSTAR":6.5719e-5,"MEAN_MOTION_DOT":8.1e-7,"MEAN_MOTION_DDOT":0},{"OBJECT_NAME":"OKEAN-3","OBJECT_ID":"1991-039A","EPOCH":"2026-03-11T19:21:52.678080","MEAN_MOTION":15.0482406,"ECCENTRICITY":0.0013754,"INCLINATION":82.5195,"RA_OF_ASC_NODE":334.7924,"ARG_OF_PERICENTER":329.955,"MEAN_ANOMALY":30.0886,"EPHEMERIS_TYPE":0,"CLASSIFICATION_TYPE":"U","NORAD_CAT_ID":21397,"ELEMENT_SET_NO":999,"REV_AT_EPOCH":86535,"BSTAR":0.0002993,"MEAN_MOTION_DOT":4.261e-5,"MEAN_MOTION_DDOT":0},{"OBJECT_NAME":"COSMOS 2151","OBJECT_ID":"1991-042A","EPOCH":"2026-03-11T19:37:43.140288","MEAN_MOTION":15.00112448,"ECCENTRICITY":0.0013932,"INCLINATION":82.493,"RA_OF_ASC_NODE":81.6227,"ARG_OF_PERICENTER":57.3576,"MEAN_ANOMALY":302.899,"EPHEMERIS_TYPE":0,"CLASSIFICATION_TYPE":"U","NORAD_CAT_ID":21422,"ELEMENT_SET_NO":999,"REV_AT_EPOCH":86351,"BSTAR":0.00015595,"MEAN_MOTION_DOT":1.975e-5,"MEAN_MOTION_DDOT":0},{"OBJECT_NAME":"SL-14 R/B","OBJECT_ID":"1991-042B","EPOCH":"2026-03-11T20:25:29.867232","MEAN_MOTION":14.81832048,"ECCENTRICITY":0.0015903,"INCLINATION":82.4929,"RA_OF_ASC_NODE":218.1556,"ARG_OF_PERICENTER":231.0138,"MEAN_ANOMALY":128.966,"EPHEMERIS_TYPE":0,"CLASSIFICATION_TYPE":"U","NORAD_CAT_ID":21423,"ELEMENT_SET_NO":999,"REV_AT_EPOCH":85339,"BSTAR":7.0855e-5,"MEAN_MOTION_DOT":5.84e-6,"MEAN_MOTION_DDOT":0},{"OBJECT_NAME":"ERS-1","OBJECT_ID":"1991-050A","EPOCH":"2026-03-11T13:46:44.766336","MEAN_MOTION":14.39451012,"ECCENTRICITY":0.0031724,"INCLINATION":98.788,"RA_OF_ASC_NODE":88.8561,"ARG_OF_PERICENTER":194.8016,"MEAN_ANOMALY":165.2246,"EPHEMERIS_TYPE":0,"CLASSIFICATION_TYPE":"U","NORAD_CAT_ID":21574,"ELEMENT_SET_NO":999,"REV_AT_EPOCH":81600,"BSTAR":0.00013552,"MEAN_MOTION_DOT":3.78e-6,"MEAN_MOTION_DDOT":0},{"OBJECT_NAME":"ARIANE 40 R/B","OBJECT_ID":"1991-050F","EPOCH":"2026-03-11T18:13:22.611072","MEAN_MOTION":14.42895234,"ECCENTRICITY":0.0004262,"INCLINATION":98.2007,"RA_OF_ASC_NODE":122.9179,"ARG_OF_PERICENTER":76.644,"MEAN_ANOMALY":283.5225,"EPHEMERIS_TYPE":0,"CLASSIFICATION_TYPE":"U","NORAD_CAT_ID":21610,"ELEMENT_SET_NO":999,"REV_AT_EPOCH":81929,"BSTAR":0.00011407,"MEAN_MOTION_DOT":3.39e-6,"MEAN_MOTION_DDOT":0},{"OBJECT_NAME":"INTERCOSMOS 25","OBJECT_ID":"1991-086A","EPOCH":"2026-03-11T15:20:10.578912","MEAN_MOTION":12.12005735,"ECCENTRICITY":0.1486942,"INCLINATION":82.6045,"RA_OF_ASC_NODE":308.8303,"ARG_OF_PERICENTER":112.7337,"MEAN_ANOMALY":263.7508,"EPHEMERIS_TYPE":0,"CLASSIFICATION_TYPE":"U","NORAD_CAT_ID":21819,"ELEMENT_SET_NO":999,"REV_AT_EPOCH":49692,"BSTAR":0.00035302,"MEAN_MOTION_DOT":1.837e-5,"MEAN_MOTION_DDOT":0},{"OBJECT_NAME":"SL-8 R/B","OBJECT_ID":"1992-008B","EPOCH":"2026-03-11T14:42:05.630688","MEAN_MOTION":13.7596983,"ECCENTRICITY":0.0035615,"INCLINATION":82.9222,"RA_OF_ASC_NODE":266.3475,"ARG_OF_PERICENTER":128.1325,"MEAN_ANOMALY":293.564,"EPHEMERIS_TYPE":0,"CLASSIFICATION_TYPE":"U","NORAD_CAT_ID":21876,"ELEMENT_SET_NO":999,"REV_AT_EPOCH":70968,"BSTAR":-6.0059e-7,"MEAN_MOTION_DOT":1.5e-7,"MEAN_MOTION_DDOT":0},{"OBJECT_NAME":"SL-8 R/B","OBJECT_ID":"1992-020B","EPOCH":"2026-03-11T17:45:43.227360","MEAN_MOTION":13.75549784,"ECCENTRICITY":0.0027642,"INCLINATION":82.9333,"RA_OF_ASC_NODE":152.2393,"ARG_OF_PERICENTER":292.8296,"MEAN_ANOMALY":183.54,"EPHEMERIS_TYPE":0,"CLASSIFICATION_TYPE":"U","NORAD_CAT_ID":21938,"ELEMENT_SET_NO":999,"REV_AT_EPOCH":70141,"BSTAR":5.7498e-5,"MEAN_MOTION_DOT":7.0e-7,"MEAN_MOTION_DDOT":0},{"OBJECT_NAME":"USA 81","OBJECT_ID":"1992-023A","EPOCH":"2026-03-11T14:45:20.562048","MEAN_MOTION":14.32368672,"ECCENTRICITY":0.0002397,"INCLINATION":85.0082,"RA_OF_ASC_NODE":130.3307,"ARG_OF_PERICENTER":76.5141,"MEAN_ANOMALY":283.6318,"EPHEMERIS_TYPE":0,"CLASSIFICATION_TYPE":"U","NORAD_CAT_ID":21949,"ELEMENT_SET_NO":999,"REV_AT_EPOCH":9506,"BSTAR":6.1306e-5,"MEAN_MOTION_DOT":1.86e-6,"MEAN_MOTION_DDOT":0},{"OBJECT_NAME":"COSMOS 2219","OBJECT_ID":"1992-076A","EPOCH":"2026-03-11T20:31:42.680640","MEAN_MOTION":14.14093176,"ECCENTRICITY":0.0018871,"INCLINATION":71.0639,"RA_OF_ASC_NODE":13.5404,"ARG_OF_PERICENTER":204.0706,"MEAN_ANOMALY":155.9536,"EPHEMERIS_TYPE":0,"CLASSIFICATION_TYPE":"U","NORAD_CAT_ID":22219,"ELEMENT_SET_NO":999,"REV_AT_EPOCH":71868,"BSTAR":5.5014e-5,"MEAN_MOTION_DOT":5.8e-7,"MEAN_MOTION_DDOT":0},{"OBJECT_NAME":"SL-16 R/B","OBJECT_ID":"1992-076B","EPOCH":"2026-03-11T18:05:43.293120","MEAN_MOTION":14.16859282,"ECCENTRICITY":0.0010468,"INCLINATION":71.0009,"RA_OF_ASC_NODE":184.0257,"ARG_OF_PERICENTER":92.6138,"MEAN_ANOMALY":19.5545,"EPHEMERIS_TYPE":0,"CLASSIFICATION_TYPE":"U","NORAD_CAT_ID":22220,"ELEMENT_SET_NO":999,"REV_AT_EPOCH":72212,"BSTAR":-5.25e-5,"MEAN_MOTION_DOT":-1.53e-6,"MEAN_MOTION_DDOT":0},{"OBJECT_NAME":"COSMOS 2221","OBJECT_ID":"1992-080A","EPOCH":"2026-03-11T20:15:50.056704","MEAN_MOTION":14.96209562,"ECCENTRICITY":0.0014237,"INCLINATION":82.5012,"RA_OF_ASC_NODE":277.0167,"ARG_OF_PERICENTER":179.615,"MEAN_ANOMALY":180.5086,"EPHEMERIS_TYPE":0,"CLASSIFICATION_TYPE":"U","NORAD_CAT_ID":22236,"ELEMENT_SET_NO":999,"REV_AT_EPOCH":78111,"BSTAR":0.00019341,"MEAN_MOTION_DOT":2.21e-5,"MEAN_MOTION_DDOT":0},{"OBJECT_NAME":"SL-16 R/B","OBJECT_ID":"1992-093B","EPOCH":"2026-03-11T20:37:49.821888","MEAN_MOTION":14.15447308,"ECCENTRICITY":0.0006384,"INCLINATION":71.0242,"RA_OF_ASC_NODE":359.7108,"ARG_OF_PERICENTER":291.419,"MEAN_ANOMALY":68.6251,"EPHEMERIS_TYPE":0,"CLASSIFICATION_TYPE":"U","NORAD_CAT_ID":22285,"ELEMENT_SET_NO":999,"REV_AT_EPOCH":71346,"BSTAR":-6.236e-5,"MEAN_MOTION_DOT":-1.69e-6,"MEAN_MOTION_DDOT":0},{"OBJECT_NAME":"COSMOS 2228","OBJECT_ID":"1992-094A","EPOCH":"2026-03-11T20:37:20.216064","MEAN_MOTION":14.97202099,"ECCENTRICITY":0.0016707,"INCLINATION":82.5159,"RA_OF_ASC_NODE":235.2327,"ARG_OF_PERICENTER":296.846,"MEAN_ANOMALY":63.1054,"EPHEMERIS_TYPE":0,"CLASSIFICATION_TYPE":"U","NORAD_CAT_ID":22286,"ELEMENT_SET_NO":999,"REV_AT_EPOCH":77638,"BSTAR":0.00024557,"MEAN_MOTION_DOT":2.873e-5,"MEAN_MOTION_DDOT":0},{"OBJECT_NAME":"SL-16 R/B","OBJECT_ID":"1993-016B","EPOCH":"2026-03-11T19:54:34.231968","MEAN_MOTION":14.15309235,"ECCENTRICITY":0.0011948,"INCLINATION":71.0077,"RA_OF_ASC_NODE":210.6861,"ARG_OF_PERICENTER":311.1602,"MEAN_ANOMALY":48.8489,"EPHEMERIS_TYPE":0,"CLASSIFICATION_TYPE":"U","NORAD_CAT_ID":22566,"ELEMENT_SET_NO":999,"REV_AT_EPOCH":70247,"BSTAR":3.2629e-5,"MEAN_MOTION_DOT":1.6e-7,"MEAN_MOTION_DDOT":0},{"OBJECT_NAME":"COSMOS 2242","OBJECT_ID":"1993-024A","EPOCH":"2026-03-11T13:47:52.592928","MEAN_MOTION":14.96557684,"ECCENTRICITY":0.0015086,"INCLINATION":82.5156,"RA_OF_ASC_NODE":264.9127,"ARG_OF_PERICENTER":302.0375,"MEAN_ANOMALY":57.9381,"EPHEMERIS_TYPE":0,"CLASSIFICATION_TYPE":"U","NORAD_CAT_ID":22626,"ELEMENT_SET_NO":999,"REV_AT_EPOCH":78067,"BSTAR":0.00017073,"MEAN_MOTION_DOT":1.971e-5,"MEAN_MOTION_DDOT":0}]
